start=new Date('2023-05-16T00:00:00.000Z').valueOf();
sats=[{"CENTER_NAME":"EARTH","NORAD_CAT_ID":"54858","BSTAR":"0.00009883000000","COUNTRY_CODE":"US","FILE":"3908892","PERIOD":"95.838","CLASSIFICATION_TYPE":"U","PERIAPSIS":"558.064","MEAN_MOTION":"15.02537967","OBJECT_TYPE":"PAYLOAD","ARG_OF_PERICENTER":"271.3091","RA_OF_ASC_NODE":"311.7582","ECCENTRICITY":"0.00014580","INCLINATION":"43.0038","MEAN_ELEMENT_THEORY":"SGP4","APOAPSIS":"560.087","ELEMENT_SET_NO":"999","DECAY_DATE":null,"LAUNCH_DATE":"2022-12-28","REF_FRAME":"TEME","MEAN_MOTION_DDOT":"0.0000000000000","TLE_LINE1":"1 54858U 22177AQ  23135.67031707  .00001132  00000-0  98830-4 0  9993","SITE":"AFETR","GP_ID":"231929721","TLE_LINE2":"2 54858  43.0038 311.7582 0001458 271.3091  88.7584 15.02537967 22311","TIME_SYSTEM":"UTC","EPHEMERIS_TYPE":"0","REV_AT_EPOCH":"2231","RCS_SIZE":"LARGE","MEAN_MOTION_DOT":"0.00001132","SEMIMAJOR_AXIS":"6937.210","OBJECT_ID":"2022-177AQ","OBJECT_NAME":"STARLINK-5407","MEAN_ANOMALY":"88.7584","EPOCH":"2023-05-15T16:05:15.394848"},{"EPOCH":"2023-05-15T19:05:31.492032","OBJECT_NAME":"STARLINK-5409","MEAN_ANOMALY":"82.4728","SEMIMAJOR_AXIS":"6937.210","RCS_SIZE":"LARGE","MEAN_MOTION_DOT":"0.00001446","OBJECT_ID":"2022-177AR","REV_AT_EPOCH":"2233","EPHEMERIS_TYPE":"0","GP_ID":"231928476","SITE":"AFETR","TIME_SYSTEM":"UTC","TLE_LINE2":"2 54859  43.0033 310.9775 0001734 277.5918  82.4728 15.02538009 22336","TLE_LINE1":"1 54859U 22177AR  23135.79550338  .00001446  00000-0  12211-3 0  9999","MEAN_MOTION_DDOT":"0.0000000000000","REF_FRAME":"TEME","DECAY_DATE":null,"LAUNCH_DATE":"2022-12-28","APOAPSIS":"560.278","MEAN_ELEMENT_THEORY":"SGP4","ELEMENT_SET_NO":"999","OBJECT_TYPE":"PAYLOAD","ECCENTRICITY":"0.00017340","RA_OF_ASC_NODE":"310.9775","INCLINATION":"43.0033","ARG_OF_PERICENTER":"277.5918","CLASSIFICATION_TYPE":"U","PERIOD":"95.838","MEAN_MOTION":"15.02538009","PERIAPSIS":"557.872","COUNTRY_CODE":"US","BSTAR":"0.00012211000000","FILE":"3908892","NORAD_CAT_ID":"54859","CENTER_NAME":"EARTH"},{"OBJECT_TYPE":"PAYLOAD","ARG_OF_PERICENTER":"273.6018","ECCENTRICITY":"0.00016810","RA_OF_ASC_NODE":"310.9353","INCLINATION":"43.0052","PERIOD":"95.838","CLASSIFICATION_TYPE":"U","PERIAPSIS":"557.906","MEAN_MOTION":"15.02538999","BSTAR":"0.00005778000000","COUNTRY_CODE":"US","FILE":"3908798","CENTER_NAME":"EARTH","NORAD_CAT_ID":"54860","MEAN_MOTION_DDOT":"0.0000000000000","TLE_LINE1":"1 54860U 22177AS  23135.78994962  .00000577  00000-0  57780-4 0  9990","REF_FRAME":"TEME","LAUNCH_DATE":"2022-12-28","DECAY_DATE":null,"MEAN_ELEMENT_THEORY":"SGP4","APOAPSIS":"560.238","ELEMENT_SET_NO":"999","EPHEMERIS_TYPE":"0","SITE":"AFETR","GP_ID":"231900958","TLE_LINE2":"2 54860  43.0052 310.9353 0001681 273.6018  86.4632 15.02538999 21357","TIME_SYSTEM":"UTC","EPOCH":"2023-05-15T18:57:31.647168","OBJECT_NAME":"STARLINK-5406","MEAN_ANOMALY":"86.4632","MEAN_MOTION_DOT":"0.00000577","RCS_SIZE":"LARGE","SEMIMAJOR_AXIS":"6937.207","OBJECT_ID":"2022-177AS","REV_AT_EPOCH":"2135"},{"INCLINATION":"43.0047","RA_OF_ASC_NODE":"311.7761","ECCENTRICITY":"0.00015020","ARG_OF_PERICENTER":"269.6933","OBJECT_TYPE":"PAYLOAD","MEAN_MOTION":"15.02534798","PERIAPSIS":"558.043","CLASSIFICATION_TYPE":"U","PERIOD":"95.838","FILE":"3908892","COUNTRY_CODE":"US","BSTAR":"-0.00002108800000","NORAD_CAT_ID":"54861","CENTER_NAME":"EARTH","TLE_LINE1":"1 54861U 22177AT  23135.67253763 -.00000489  00000-0 -21088-4 0  9992","MEAN_MOTION_DDOT":"0.0000000000000","REF_FRAME":"TEME","DECAY_DATE":null,"LAUNCH_DATE":"2022-12-28","ELEMENT_SET_NO":"999","APOAPSIS":"560.127","MEAN_ELEMENT_THEORY":"SGP4","EPHEMERIS_TYPE":"0","TIME_SYSTEM":"UTC","TLE_LINE2":"2 54861  43.0047 311.7761 0001502 269.6933  90.3737 15.02534798 22317","SITE":"AFETR","GP_ID":"231929477","EPOCH":"2023-05-15T16:08:27.251232","MEAN_ANOMALY":"90.3737","OBJECT_NAME":"STARLINK-5400","OBJECT_ID":"2022-177AT","SEMIMAJOR_AXIS":"6937.220","MEAN_MOTION_DOT":"-0.00000489","RCS_SIZE":"LARGE","REV_AT_EPOCH":"2231"},{"TLE_LINE1":"1 54862U 22177AU  23135.76343171 -.00000161  00000-0  31304-5 0  9995","MEAN_MOTION_DDOT":"0.0000000000000","REF_FRAME":"TEME","LAUNCH_DATE":"2022-12-28","DECAY_DATE":null,"MEAN_ELEMENT_THEORY":"SGP4","APOAPSIS":"560.144","ELEMENT_SET_NO":"999","OBJECT_TYPE":"PAYLOAD","ARG_OF_PERICENTER":"266.8626","INCLINATION":"43.0034","RA_OF_ASC_NODE":"311.6092","ECCENTRICITY":"0.00015470","PERIOD":"95.838","CLASSIFICATION_TYPE":"U","PERIAPSIS":"557.997","MEAN_MOTION":"15.02539637","BSTAR":"0.00000313040000","COUNTRY_CODE":"US","FILE":"3908892","CENTER_NAME":"EARTH","NORAD_CAT_ID":"54862","EPOCH":"2023-05-15T18:19:20.499744","OBJECT_NAME":"STARLINK-5403","MEAN_ANOMALY":"93.2039","MEAN_MOTION_DOT":"-0.00000161","RCS_SIZE":"LARGE","SEMIMAJOR_AXIS":"6937.205","OBJECT_ID":"2022-177AU","REV_AT_EPOCH":"2232","EPHEMERIS_TYPE":"0","SITE":"AFETR","GP_ID":"231929221","TLE_LINE2":"2 54862  43.0034 311.6092 0001547 266.8626  93.2039 15.02539637 22322","TIME_SYSTEM":"UTC"},{"REV_AT_EPOCH":"2233","SEMIMAJOR_AXIS":"6937.206","MEAN_MOTION_DOT":"-0.00000035","RCS_SIZE":"LARGE","OBJECT_ID":"2022-177AV","OBJECT_NAME":"STARLINK-5405","MEAN_ANOMALY":"88.7590","EPOCH":"2023-05-15T19:08:42.980352","GP_ID":"231927976","SITE":"AFETR","TIME_SYSTEM":"UTC","TLE_LINE2":"2 54863  43.0058 310.9946 0001713 271.3056  88.7590 15.02539276 22333","EPHEMERIS_TYPE":"0","APOAPSIS":"560.260","MEAN_ELEMENT_THEORY":"SGP4","ELEMENT_SET_NO":"999","DECAY_DATE":null,"LAUNCH_DATE":"2022-12-28","REF_FRAME":"TEME","TLE_LINE1":"1 54863U 22177AV  23135.79771968 -.00000035  00000-0  12471-4 0  9991","MEAN_MOTION_DDOT":"0.0000000000000","NORAD_CAT_ID":"54863","CENTER_NAME":"EARTH","COUNTRY_CODE":"US","BSTAR":"0.00001247100000","FILE":"3908892","CLASSIFICATION_TYPE":"U","PERIOD":"95.838","MEAN_MOTION":"15.02539276","PERIAPSIS":"557.883","OBJECT_TYPE":"PAYLOAD","INCLINATION":"43.0058","RA_OF_ASC_NODE":"310.9946","ECCENTRICITY":"0.00017130","ARG_OF_PERICENTER":"271.3056"},{"BSTAR":"-0.00003082500000","COUNTRY_CODE":"US","FILE":"3908892","CENTER_NAME":"EARTH","NORAD_CAT_ID":"54864","OBJECT_TYPE":"PAYLOAD","ARG_OF_PERICENTER":"277.6181","RA_OF_ASC_NODE":"311.9768","ECCENTRICITY":"0.00022640","INCLINATION":"43.0055","PERIOD":"95.839","CLASSIFICATION_TYPE":"U","PERIAPSIS":"557.537","MEAN_MOTION":"15.02527542","DECAY_DATE":null,"LAUNCH_DATE":"2022-12-28","MEAN_ELEMENT_THEORY":"SGP4","APOAPSIS":"560.678","ELEMENT_SET_NO":"999","TLE_LINE1":"1 54864U 22177AW  23135.58497708 -.00000620  00000-0 -30825-4 0  9990","MEAN_MOTION_DDOT":"0.0000000000000","REF_FRAME":"TEME","GP_ID":"231928226","SITE":"AFETR","TLE_LINE2":"2 54864  43.0055 311.9768 0002264 277.6181  82.4404 15.02527542 22309","TIME_SYSTEM":"UTC","EPHEMERIS_TYPE":"0","RCS_SIZE":"LARGE","MEAN_MOTION_DOT":"-0.00000620","SEMIMAJOR_AXIS":"6937.243","OBJECT_ID":"2022-177AW","REV_AT_EPOCH":"2230","EPOCH":"2023-05-15T14:02:22.019712","OBJECT_NAME":"STARLINK-5359","MEAN_ANOMALY":"82.4404"},{"LAUNCH_DATE":"2022-12-28","DECAY_DATE":null,"APOAPSIS":"560.207","MEAN_ELEMENT_THEORY":"SGP4","ELEMENT_SET_NO":"999","TLE_LINE1":"1 54865U 22177AX  23135.66809837  .00000779  00000-0  72749-4 0  9994","MEAN_MOTION_DDOT":"0.0000000000000","REF_FRAME":"TEME","COUNTRY_CODE":"US","BSTAR":"0.00007274900000","FILE":"3908809","NORAD_CAT_ID":"54865","CENTER_NAME":"EARTH","OBJECT_TYPE":"PAYLOAD","RA_OF_ASC_NODE":"311.7418","ECCENTRICITY":"0.00016140","INCLINATION":"43.0047","ARG_OF_PERICENTER":"272.6501","CLASSIFICATION_TYPE":"U","PERIOD":"95.838","MEAN_MOTION":"15.02534010","PERIAPSIS":"557.968","SEMIMAJOR_AXIS":"6937.223","RCS_SIZE":"LARGE","MEAN_MOTION_DOT":"0.00000779","OBJECT_ID":"2022-177AX","REV_AT_EPOCH":"2121","EPOCH":"2023-05-15T16:02:03.699168","OBJECT_NAME":"STARLINK-5411","MEAN_ANOMALY":"87.4156","SITE":"AFETR","GP_ID":"231901281","TIME_SYSTEM":"UTC","TLE_LINE2":"2 54865  43.0047 311.7418 0001614 272.6501  87.4156 15.02534010 21216","EPHEMERIS_TYPE":"0"},{"DECAY_DATE":null,"LAUNCH_DATE":"2022-12-28","APOAPSIS":"560.083","MEAN_ELEMENT_THEORY":"SGP4","ELEMENT_SET_NO":"999","MEAN_MOTION_DDOT":"0.0000000000000","TLE_LINE1":"1 54866U 22177AY  23135.77663543  .00000207  00000-0  30375-4 0  9994","REF_FRAME":"TEME","COUNTRY_CODE":"US","BSTAR":"0.00003037500000","FILE":"3908892","NORAD_CAT_ID":"54866","CENTER_NAME":"EARTH","OBJECT_TYPE":"PAYLOAD","RA_OF_ASC_NODE":"310.8362","ECCENTRICITY":"0.00014390","INCLINATION":"43.0042","ARG_OF_PERICENTER":"275.7727","CLASSIFICATION_TYPE":"U","PERIOD":"95.838","MEAN_MOTION":"15.02535053","PERIAPSIS":"558.086","SEMIMAJOR_AXIS":"6937.219","RCS_SIZE":"LARGE","MEAN_MOTION_DOT":"0.00000207","OBJECT_ID":"2022-177AY","REV_AT_EPOCH":"2233","EPOCH":"2023-05-15T18:38:21.301152","OBJECT_NAME":"STARLINK-5398","MEAN_ANOMALY":"84.2951","SITE":"AFETR","GP_ID":"231929722","TIME_SYSTEM":"UTC","TLE_LINE2":"2 54866  43.0042 310.8362 0001439 275.7727  84.2951 15.02535053 22339","EPHEMERIS_TYPE":"0"},{"MEAN_MOTION":"15.02526296","PERIAPSIS":"557.580","CLASSIFICATION_TYPE":"U","PERIOD":"95.839","ECCENTRICITY":"0.00022080","RA_OF_ASC_NODE":"312.0019","INCLINATION":"43.0055","ARG_OF_PERICENTER":"269.6868","OBJECT_TYPE":"PAYLOAD","NORAD_CAT_ID":"54867","CENTER_NAME":"EARTH","FILE":"3908814","COUNTRY_CODE":"US","BSTAR":"-0.00003040800000","REF_FRAME":"TEME","MEAN_MOTION_DDOT":"0.0000000000000","TLE_LINE1":"1 54867U 22177AZ  23135.58830644 -.00000615  00000-0 -30408-4 0  9994","ELEMENT_SET_NO":"999","APOAPSIS":"560.643","MEAN_ELEMENT_THEORY":"SGP4","LAUNCH_DATE":"2022-12-28","DECAY_DATE":null,"EPHEMERIS_TYPE":"0","TIME_SYSTEM":"UTC","TLE_LINE2":"2 54867  43.0055 312.0019 0002208 269.6868  90.3721 15.02526296 21207","SITE":"AFETR","GP_ID":"231901604","MEAN_ANOMALY":"90.3721","OBJECT_NAME":"STARLINK-5396","EPOCH":"2023-05-15T14:07:09.676416","REV_AT_EPOCH":"2120","OBJECT_ID":"2022-177AZ","SEMIMAJOR_AXIS":"6937.246","MEAN_MOTION_DOT":"-0.00000615","RCS_SIZE":"LARGE"}];
